COMMENT,ORIGINATOR,NORAD_CAT_ID,OBJECT_NAME,OBJECT_TYPE,CLASSIFICATION_TYPE,INTLDES,EPOCH,EPOCH_MICROSECONDS,MEAN_MOTION,ECCENTRICITY,INCLINATION,RA_OF_ASC_NODE,ARG_OF_PERICENTER,MEAN_ANOMALY,EPHEMERIS_TYPE,ELEMENT_SET_NO,REV_AT_EPOCH,BSTAR,MEAN_MOTION_DOT,MEAN_MOTION_DDOT,FILE,TLE_LINE0,TLE_LINE1,TLE_LINE2,OBJECT_ID,OBJECT_NUMBER,SEMIMAJOR_AXIS,PERIOD,APOGEE,PERIGEE,DECAYED
"GENERATED VIA SPACETRACK.ORG API","18 SPCS","12345","COSMOS 1174 DEB","DEBRIS","U","80030T","1986-10-19 01:44:56","298047","14.08836431","0.0609622","66.0579","326.8801","5.1745","355.522","0","999","78019","0.00026763","0.00002705","0","34507","0 COSMOS 1174 DEB","1 12345U 80030T   86292.07287382  .00002705 +00000-0 +26763-3 0  9991","2 12345 066.0579 326.8801 0609622 005.1745 355.5220 14.08836431780190","1980-030T","12345","7241.498","102.212","1304.820","421.905","1"
"GENERATED VIA SPACETRACK.ORG API","18 SPCS","12345","COSMOS 1174 DEB","DEBRIS","U","80030T","1986-10-17 05:27:09","182303","14.08824215","0.0607524","66.0573","331.6984","6.3476","354.4995","0","999","77993","0.0001985","0.00001946","0","34507","0 COSMOS 1174 DEB","1 12345U 80030T   86290.22718961  .00001946 +00000-0 +19850-3 0  9993","2 12345 066.0573 331.6984 0607524 006.3476 354.4995 14.08824215779937","1980-030T","12345","7241.540","102.213","1303.346","423.464","1"
"GENERATED VIA SPACETRACK.ORG API","18 SPCS","12345","COSMOS 1174 DEB","DEBRIS","U","80030T","1986-10-15 05:44:53","880863","14.0881274","0.0609272","66.0596","336.8949","7.3729","353.5832","0","999","77965","0.00013105","0.00001257","0","34507","0 COSMOS 1174 DEB","1 12345U 80030T   86288.23951251  .00001257 +00000-0 +13105-3 0  9994","2 12345 066.0596 336.8949 0609272 007.3729 353.5832 14.08812740779653","1980-030T","12345","7241.579","102.214","1304.653","422.235","1"
"GENERATED VIA SPACETRACK.ORG API","18 SPCS","12345","COSMOS 1174 DEB","DEBRIS","U","80030T","1986-10-12 06:11:28","409279","14.08801746","0.0609115","66.0599","344.6792","9.0859","352.0635","0","999","77923","0.000074461","0.00000722","0","34507","0 COSMOS 1174 DEB","1 12345U 80030T   86285.25796770  .00000722 +00000-0 +74461-4 0  9995","2 12345 066.0599 344.6792 0609115 009.0859 352.0635 14.08801746779231","1980-030T","12345","7241.617","102.215","1304.579","422.384","1"
"GENERATED VIA SPACETRACK.ORG API","18 SPCS","12345","COSMOS 1174 DEB","DEBRIS","U","80030T","1986-10-02 07:39:54","518400","14.08777801","0.0608041","66.0601","10.622","14.8041","346.9977","0","999","77783","0.00013967","0.00001336","0","34507","0 COSMOS 1174 DEB","1 12345U 80030T   86275.31938100  .00001336 +00000-0 +13967-3 0  9991","2 12345 066.0601 010.6220 0608041 014.8041 346.9977 14.08777801777834","1980-030T","12345","7241.699","102.216","1303.889","423.239","1"
"GENERATED VIA SPACETRACK.ORG API","18 SPCS","12345","COSMOS 1174 DEB","DEBRIS","U","80030T","1986-09-27 18:37:22","889568","14.08762519","0.0607814","66.0553","22.4795","17.4349","344.6647","0","999","77719","0.00013683","0.00001303","0","34507","0 COSMOS 1174 DEB","1 12345U 80030T   86270.77595937  .00001303 +00000-0 +13683-3 0  9992","2 12345 066.0553 022.4795 0607814 017.4349 344.6647 14.08762519777193","1980-030T","12345","7241.751","102.217","1303.780","423.452","1"
"GENERATED VIA SPACETRACK.ORG API","18 SPCS","12345","COSMOS 1174 DEB","DEBRIS","U","80030T","1986-09-21 10:59:03","737759","14.08747223","0.0607861","66.0568","38.9778","21.0087","341.4836","0","999","77630","0.000061311","0.00000578","0","34507","0 COSMOS 1174 DEB","1 12345U 80030T   86264.45768215  .00000578 +00000-0 +61311-4 0  9996","2 12345 066.0568 038.9778 0607861 021.0087 341.4836 14.08747223776306","1980-030T","12345","7241.804","102.218","1303.870","423.468","1"
"GENERATED VIA SPACETRACK.ORG API","18 SPCS","12345","COSMOS 1174 DEB","DEBRIS","U","80030T","1986-09-19 11:16:39","271871","14.08746059","0.0608213","66.0575","44.1686","22.1145","340.4983","0","999","77602","0.00009948","0.00000978","0","34507","0 COSMOS 1174 DEB","1 12345U 80030T   86262.46989898  .00000978 +00000-0 +99480-4 0  9999","2 12345 066.0575 044.1686 0608213 022.1145 340.4983 14.08746059776027","1980-030T","12345","7241.807","102.219","1304.129","423.216","1"
"GENERATED VIA SPACETRACK.ORG API","18 SPCS","12345","COSMOS 1174 DEB","DEBRIS","U","80030T","1986-09-18 11:25:26","889023","14.08743215","0.0608352","66.0575","46.7658","22.6825","339.9847","0","999","77588","0.00010465","0.00000972","0","34507","0 COSMOS 1174 DEB","1 12345U 80030T   86261.47600566  .00000972 +00000-0 +10465-3 0  9990","2 12345 066.0575 046.7658 0608352 022.6825 339.9847 14.08743215775884","1980-030T","12345","7241.817","102.219","1304.240","423.125","1"
"GENERATED VIA SPACETRACK.ORG API","18 SPCS","12345","COSMOS 1174 DEB","DEBRIS","U","80030T","1986-09-14 20:31:45","329663","14.08736539","0.0607597","66.0564","56.2154","24.799","338.1015","0","999","77537","0.00018197","0.0000177","0","34507","0 COSMOS 1174 DEB","1 12345U 80030T   86257.85538576  .00001770 +00000-0 +18197-3 0  9995","2 12345 066.0564 056.2154 0607597 024.7990 338.1015 14.08736539775378","1980-030T","12345","7241.840","102.219","1303.717","423.693","1"
"GENERATED VIA SPACETRACK.ORG API","18 SPCS","12345","COSMOS 1174 DEB","DEBRIS","U","80030T","1986-09-14 12:00:36","429696","14.08735225","0.0607383","66.0568","57.1422","25.0226","337.9018","0","999","77532","0.00018252","0.00001774","0","34507","0 COSMOS 1174 DEB","1 12345U 80030T   86257.50042164  .00001774 +00000-0 +18252-3 0  9996","2 12345 066.0568 057.1422 0607383 025.0226 337.9018 14.08735225775325","1980-030T","12345","7241.845","102.219","1303.567","423.852","1"
"GENERATED VIA SPACETRACK.ORG API","18 SPCS","12345","COSMOS 1174 DEB","DEBRIS","U","80030T","1986-09-12 20:49:19","305120","14.08725115","0.0607622","66.0548","61.4042","25.9418","337.0811","0","999","77509","0.00010424","0.00000964","0","34507","0 COSMOS 1174 DEB","1 12345U 80030T   86255.86758455  .00000964 +00000-0 +10424-3 0  9993","2 12345 066.0548 061.4042 0607622 025.9418 337.0811 14.08725115775090","1980-030T","12345","7241.879","102.220","1303.777","423.712","1"
"GENERATED VIA SPACETRACK.ORG API","18 SPCS","12345","COSMOS 1174 DEB","DEBRIS","U","80030T","1986-09-04 15:10:30","682847","14.08706432","0.0607322","66.0558","82.9071","30.6724","332.8384","0","999","77393","0.000092782","0.00000903","0","34507","0 COSMOS 1174 DEB","1 12345U 80030T   86247.63229957  .00000903 +00000-0 +92782-4 0  9990","2 12345 066.0558 082.9071 0607322 030.6724 332.8384 14.08706432773931","1980-030T","12345","7241.943","102.221","1303.627","423.989","1"
"GENERATED VIA SPACETRACK.ORG API","18 SPCS","12345","COSMOS 1174 DEB","DEBRIS","U","80030T","1986-09-02 13:45:47","86560","14.08704354","0.0607107","66.0548","88.2795","31.8735","331.762","0","999","77364","0.00016579","0.00001599","0","34507","0 COSMOS 1174 DEB","1 12345U 80030T   86245.57346165  .00001599 +00000-0 +16579-3 0  9993","2 12345 066.0548 088.2795 0607107 031.8735 331.7620 14.08704354773648","1980-030T","12345","7241.950","102.222","1303.479","424.152","1"
"GENERATED VIA SPACETRACK.ORG API","18 SPCS","12345","COSMOS 1174 DEB","DEBRIS","U","80030T","1986-08-31 15:45:30","800736","14.08698218","0.0607062","66.0552","93.2838","32.9702","330.7692","0","999","77337","0.00018142","0.0000176","0","34507","0 COSMOS 1174 DEB","1 12345U 80030T   86243.65660649  .00001760 +00000-0 +18142-3 0  9994","2 12345 066.0552 093.2838 0607062 032.9702 330.7692 14.08698218773372","1980-030T","12345","7241.971","102.222","1303.469","424.204","1"
"GENERATED VIA SPACETRACK.ORG API","18 SPCS","12345","COSMOS 1174 DEB","DEBRIS","U","80030T","1986-08-28 16:11:44","44512","14.08685455","0.060709","66.0553","101.0686","34.647","329.2541","0","999","77295","0.00022403","0.000022","0","34507","0 COSMOS 1174 DEB","1 12345U 80030T   86240.67481533  .00002200 +00000-0 +22403-3 0  9991","2 12345 066.0553 101.0686 0607090 034.6470 329.2541 14.08685455772952","1980-030T","12345","7242.015","102.223","1303.536","424.225","1"
"GENERATED VIA SPACETRACK.ORG API","18 SPCS","12345","COSMOS 1174 DEB","DEBRIS","U","80030T","1986-08-27 01:00:21","734208","14.08681183","0.0606661","66.0547","105.3317","35.5738","328.4232","0","999","77272","0.00028899","0.00002865","0","34507","0 COSMOS 1174 DEB","1 12345U 80030T   86239.04191822  .00002865 +00000-0 +28899-3 0  9991","2 12345 066.0547 105.3317 0606661 035.5738 328.4232 14.08681183772720","1980-030T","12345","7242.030","102.223","1303.241","424.549","1"
"GENERATED VIA SPACETRACK.ORG API","18 SPCS","12345","COSMOS 1174 DEB","DEBRIS","U","80030T","1986-08-25 04:42:16","531488","14.08671687","0.0606439","66.0556","110.1496","36.6566","327.4432","0","999","77246","0.00032587","0.00003238","0","34507","0 COSMOS 1174 DEB","1 12345U 80030T   86237.19602467  .00003238 +00000-0 +32587-3 0  9991","2 12345 066.0556 110.1496 0606439 036.6566 327.4432 14.08671687772466","1980-030T","12345","7242.062","102.224","1303.114","424.740","1"
"GENERATED VIA SPACETRACK.ORG API","18 SPCS","12345","COSMOS 1174 DEB","DEBRIS","U","80030T","1986-08-23 15:13:06","672864","14.08661678","0.0606392","66.0568","114.2295","37.5575","326.6353","0","999","77224","0.00028229","0.00002789","0","34507","0 COSMOS 1174 DEB","1 12345U 80030T   86235.63410501  .00002789 +00000-0 +28229-3 0  9992","2 12345 066.0568 114.2295 0606392 037.5575 326.6353 14.08661678772247","1980-030T","12345","7242.097","102.225","1303.117","424.807","1"
"GENERATED VIA SPACETRACK.ORG API","18 SPCS","12345","COSMOS 1174 DEB","DEBRIS","U","80030T","1986-08-22 01:43:55","891488","14.08651083","0.0605759","66.057","118.3087","38.4954","325.7942","0","999","77202","0.00025091","0.00002455","0","34507","0 COSMOS 1174 DEB","1 12345U 80030T   86234.07217467  .00002455 +00000-0 +25091-3 0  9999","2 12345 066.0570 118.3087 0605759 038.4954 325.7942 14.08651083772020","1980-030T","12345","7242.133","102.225","1302.697","425.299","1"
